start=new Date('2022-11-14T00:00:00.000Z').valueOf();
sats=[{"RCS_SIZE":"LARGE","MEAN_ANOMALY":"331.6737","OBJECT_TYPE":"PAYLOAD","EPOCH":"2022-11-13T19:29:25.887552","OBJECT_NAME":"STARLINK-3876","REF_FRAME":"TEME","FILE":"3653957","COUNTRY_CODE":"US","ELEMENT_SET_NO":"999","CENTER_NAME":"EARTH","APOAPSIS":"541.843","ARG_OF_PERICENTER":"28.4419","REV_AT_EPOCH":"3283","TLE_LINE1":"1 52354U 22045Z   22317.81210518 -.00003302  00000-0 -18943-3 0  9991","RA_OF_ASC_NODE":"239.4575","GP_ID":"217694576","PERIOD":"95.438","MEAN_MOTION_DDOT":"0.0000000000000","PERIAPSIS":"537.680","MEAN_MOTION_DOT":"-0.00003302","LAUNCH_DATE":"2022-04-29","SEMIMAJOR_AXIS":"6917.896","ECCENTRICITY":"0.00030090","INCLINATION":"53.2200","EPHEMERIS_TYPE":"0","OBJECT_ID":"2022-045Z","SITE":"AFETR","MEAN_MOTION":"15.08834767","CLASSIFICATION_TYPE":"U","TLE_LINE2":"2 52354  53.2200 239.4575 0003009  28.4419 331.6737 15.08834767 32833","BSTAR":"-0.00018943000000","MEAN_ELEMENT_THEORY":"SGP4","TIME_SYSTEM":"UTC","NORAD_CAT_ID":"52354","DECAY_DATE":null},{"NORAD_CAT_ID":"52355","TIME_SYSTEM":"UTC","MEAN_ELEMENT_THEORY":"SGP4","BSTAR":"-0.00007050700000","TLE_LINE2":"2 52355  53.2168 239.6909 0002211  36.1350 323.9791 15.08828217 32820","DECAY_DATE":null,"MEAN_MOTION":"15.08828217","SITE":"AFETR","OBJECT_ID":"2022-045AA","CLASSIFICATION_TYPE":"U","ECCENTRICITY":"0.00022110","INCLINATION":"53.2168","SEMIMAJOR_AXIS":"6917.916","LAUNCH_DATE":"2022-04-29","EPHEMERIS_TYPE":"0","PERIOD":"95.438","MEAN_MOTION_DOT":"-0.00001410","PERIAPSIS":"538.252","MEAN_MOTION_DDOT":"0.0000000000000","ARG_OF_PERICENTER":"36.1350","RA_OF_ASC_NODE":"239.6909","GP_ID":"217693324","TLE_LINE1":"1 52355U 22045AA  22317.76057434 -.00001410  00000-0 -70507-4 0  9995","REV_AT_EPOCH":"3282","ELEMENT_SET_NO":"999","APOAPSIS":"541.311","CENTER_NAME":"EARTH","COUNTRY_CODE":"US","FILE":"3653957","REF_FRAME":"TEME","OBJECT_TYPE":"PAYLOAD","MEAN_ANOMALY":"323.9791","RCS_SIZE":"LARGE","OBJECT_NAME":"STARLINK-3877","EPOCH":"2022-11-13T18:15:13.622976"},{"ELEMENT_SET_NO":"999","CENTER_NAME":"EARTH","APOAPSIS":"541.448","ARG_OF_PERICENTER":"32.2653","REV_AT_EPOCH":"3283","TLE_LINE1":"1 52356U 22045AB  22317.81304699 -.00000944  00000-0 -41215-4 0  9995","GP_ID":"217693074","RA_OF_ASC_NODE":"239.4492","RCS_SIZE":"LARGE","MEAN_ANOMALY":"327.8486","OBJECT_TYPE":"PAYLOAD","EPOCH":"2022-11-13T19:30:47.259936","OBJECT_NAME":"STARLINK-3801","REF_FRAME":"TEME","FILE":"3653957","COUNTRY_CODE":"US","OBJECT_ID":"2022-045AB","SITE":"AFETR","MEAN_MOTION":"15.08829028","CLASSIFICATION_TYPE":"U","TLE_LINE2":"2 52356  53.2188 239.4492 0002413  32.2653 327.8486 15.08829028 32831","BSTAR":"-0.00004121500000","MEAN_ELEMENT_THEORY":"SGP4","TIME_SYSTEM":"UTC","NORAD_CAT_ID":"52356","DECAY_DATE":null,"PERIOD":"95.438","MEAN_MOTION_DDOT":"0.0000000000000","PERIAPSIS":"538.110","MEAN_MOTION_DOT":"-0.00000944","LAUNCH_DATE":"2022-04-29","SEMIMAJOR_AXIS":"6917.914","ECCENTRICITY":"0.00024130","INCLINATION":"53.2188","EPHEMERIS_TYPE":"0"},{"COUNTRY_CODE":"US","REF_FRAME":"TEME","FILE":"3653957","EPOCH":"2022-11-13T19:39:59.797440","OBJECT_NAME":"STARLINK-3821","RCS_SIZE":"LARGE","OBJECT_TYPE":"PAYLOAD","MEAN_ANOMALY":"336.0625","TLE_LINE1":"1 52357U 22045AC  22317.81944210 -.00000244  00000-0  28127-5 0  9995","GP_ID":"217693825","RA_OF_ASC_NODE":"239.4274","REV_AT_EPOCH":"3283","ARG_OF_PERICENTER":"24.0501","CENTER_NAME":"EARTH","APOAPSIS":"541.737","ELEMENT_SET_NO":"999","EPHEMERIS_TYPE":"0","ECCENTRICITY":"0.00028730","INCLINATION":"53.2173","LAUNCH_DATE":"2022-04-29","SEMIMAJOR_AXIS":"6917.885","MEAN_MOTION_DOT":"-0.00000244","MEAN_MOTION_DDOT":"0.0000000000000","PERIAPSIS":"537.762","PERIOD":"95.438","DECAY_DATE":null,"MEAN_ELEMENT_THEORY":"SGP4","TIME_SYSTEM":"UTC","NORAD_CAT_ID":"52357","TLE_LINE2":"2 52357  53.2173 239.4274 0002873  24.0501 336.0625 15.08838507 32834","BSTAR":"0.00000281270000","CLASSIFICATION_TYPE":"U","SITE":"AFETR","MEAN_MOTION":"15.08838507","OBJECT_ID":"2022-045AC"},{"CLASSIFICATION_TYPE":"U","SITE":"AFETR","MEAN_MOTION":"15.08838815","OBJECT_ID":"2022-045AD","DECAY_DATE":null,"MEAN_ELEMENT_THEORY":"SGP4","TIME_SYSTEM":"UTC","NORAD_CAT_ID":"52358","TLE_LINE2":"2 52358  53.2169 239.5024 0002787  31.4183 328.6975 15.08838815 32833","BSTAR":"-0.00007584400000","MEAN_MOTION_DOT":"-0.00001495","MEAN_MOTION_DDOT":"0.0000000000000","PERIAPSIS":"537.821","PERIOD":"95.438","EPHEMERIS_TYPE":"0","INCLINATION":"53.2169","ECCENTRICITY":"0.00027870","SEMIMAJOR_AXIS":"6917.884","LAUNCH_DATE":"2022-04-29","CENTER_NAME":"EARTH","APOAPSIS":"541.677","ELEMENT_SET_NO":"999","TLE_LINE1":"1 52358U 22045AD  22317.80105448 -.00001495  00000-0 -75844-4 0  9994","RA_OF_ASC_NODE":"239.5024","GP_ID":"217694077","REV_AT_EPOCH":"3283","ARG_OF_PERICENTER":"31.4183","EPOCH":"2022-11-13T19:13:31.107072","OBJECT_NAME":"STARLINK-3837","RCS_SIZE":"LARGE","MEAN_ANOMALY":"328.6975","OBJECT_TYPE":"PAYLOAD","COUNTRY_CODE":"US","REF_FRAME":"TEME","FILE":"3653957"},{"DECAY_DATE":null,"TLE_LINE2":"2 52359  53.2186 239.4489 0004719  29.3756 330.7501 15.08842380 32837","BSTAR":"-0.00003433600000","MEAN_ELEMENT_THEORY":"SGP4","TIME_SYSTEM":"UTC","NORAD_CAT_ID":"52359","CLASSIFICATION_TYPE":"U","OBJECT_ID":"2022-045AE","SITE":"AFETR","MEAN_MOTION":"15.08842380","EPHEMERIS_TYPE":"0","SEMIMAJOR_AXIS":"6917.873","LAUNCH_DATE":"2022-04-29","ECCENTRICITY":"0.00047190","INCLINATION":"53.2186","MEAN_MOTION_DDOT":"0.0000000000000","PERIAPSIS":"536.474","MEAN_MOTION_DOT":"-0.00000836","PERIOD":"95.437","REV_AT_EPOCH":"3283","TLE_LINE1":"1 52359U 22045AE  22317.81577476 -.00000836  00000-0 -34336-4 0  9999","RA_OF_ASC_NODE":"239.4489","GP_ID":"217692825","ARG_OF_PERICENTER":"29.3756","CENTER_NAME":"EARTH","APOAPSIS":"543.003","ELEMENT_SET_NO":"999","REF_FRAME":"TEME","FILE":"3653957","COUNTRY_CODE":"US","EPOCH":"2022-11-13T19:34:42.939264","OBJECT_NAME":"STARLINK-3853","RCS_SIZE":"LARGE","MEAN_ANOMALY":"330.7501","OBJECT_TYPE":"PAYLOAD"},{"MEAN_MOTION_DOT":"-0.00000475","MEAN_MOTION_DDOT":"0.0000000000000","PERIAPSIS":"538.024","PERIOD":"95.437","EPHEMERIS_TYPE":"0","INCLINATION":"53.2173","ECCENTRICITY":"0.00024620","LAUNCH_DATE":"2022-04-29","SEMIMAJOR_AXIS":"6917.862","CLASSIFICATION_TYPE":"U","SITE":"AFETR","MEAN_MOTION":"15.08846073","OBJECT_ID":"2022-045AF","DECAY_DATE":null,"MEAN_ELEMENT_THEORY":"SGP4","NORAD_CAT_ID":"52360","TIME_SYSTEM":"UTC","TLE_LINE2":"2 52360  53.2173 229.5420 0002462  36.8952 323.2209 15.08846073 32952","BSTAR":"-0.00001172000000","EPOCH":"2022-11-13T19:04:15.047904","OBJECT_NAME":"STARLINK-3824","RCS_SIZE":"LARGE","OBJECT_TYPE":"PAYLOAD","MEAN_ANOMALY":"323.2209","COUNTRY_CODE":"US","REF_FRAME":"TEME","FILE":"3653957","CENTER_NAME":"EARTH","APOAPSIS":"541.430","ELEMENT_SET_NO":"999","TLE_LINE1":"1 52360U 22045AF  22317.79461861 -.00000475  00000-0 -11720-4 0  9999","RA_OF_ASC_NODE":"229.5420","GP_ID":"217693574","REV_AT_EPOCH":"3295","ARG_OF_PERICENTER":"36.8952"},{"PERIAPSIS":"538.025","MEAN_MOTION_DDOT":"0.0000000000000","MEAN_MOTION_DOT":"0.00000129","PERIOD":"95.438","EPHEMERIS_TYPE":"0","SEMIMAJOR_AXIS":"6917.902","LAUNCH_DATE":"2022-04-29","ECCENTRICITY":"0.00025190","INCLINATION":"53.2176","CLASSIFICATION_TYPE":"U","OBJECT_ID":"2022-045AG","MEAN_MOTION":"15.08832832","SITE":"AFETR","DECAY_DATE":null,"BSTAR":"0.00002620200000","TLE_LINE2":"2 52361  53.2176 239.4710 0002519  33.2286 326.8864 15.08832832 32833","NORAD_CAT_ID":"52361","TIME_SYSTEM":"UTC","MEAN_ELEMENT_THEORY":"SGP4","OBJECT_NAME":"STARLINK-3728","EPOCH":"2022-11-13T19:24:06.416640","MEAN_ANOMALY":"326.8864","OBJECT_TYPE":"PAYLOAD","RCS_SIZE":"LARGE","FILE":"3653957","REF_FRAME":"TEME","COUNTRY_CODE":"US","APOAPSIS":"541.510","CENTER_NAME":"EARTH","ELEMENT_SET_NO":"999","REV_AT_EPOCH":"3283","GP_ID":"217694325","RA_OF_ASC_NODE":"239.4710","TLE_LINE1":"1 52361U 22045AG  22317.80840760  .00000129  00000-0  26202-4 0  9996","ARG_OF_PERICENTER":"33.2286"},{"PERIOD":"95.439","MEAN_MOTION_DOT":"0.00000096","PERIAPSIS":"537.858","MEAN_MOTION_DDOT":"0.0000000000000","INCLINATION":"53.2176","ECCENTRICITY":"0.00027990","LAUNCH_DATE":"2022-04-29","SEMIMAJOR_AXIS":"6917.929","EPHEMERIS_TYPE":"0","MEAN_MOTION":"15.08823970","SITE":"AFETR","OBJECT_ID":"2022-045AH","CLASSIFICATION_TYPE":"U","TIME_SYSTEM":"UTC","NORAD_CAT_ID":"52362","MEAN_ELEMENT_THEORY":"SGP4","BSTAR":"0.00002415600000","TLE_LINE2":"2 52362  53.2176 232.2264 0002799  33.5425 326.5744 15.08823970 32878","DECAY_DATE":null,"OBJECT_TYPE":"PAYLOAD","MEAN_ANOMALY":"326.5744","RCS_SIZE":"LARGE","OBJECT_NAME":"STARLINK-3848","EPOCH":"2022-11-13T04:40:28.067520","COUNTRY_CODE":"US","FILE":"3653238","REF_FRAME":"TEME","ELEMENT_SET_NO":"999","APOAPSIS":"541.731","CENTER_NAME":"EARTH","ARG_OF_PERICENTER":"33.5425","GP_ID":"217627743","RA_OF_ASC_NODE":"232.2264","TLE_LINE1":"1 52362U 22045AH  22317.19476930  .00000096  00000-0  24156-4 0  9992","REV_AT_EPOCH":"3287"},{"LAUNCH_DATE":"2022-04-29","SEMIMAJOR_AXIS":"6917.805","ECCENTRICITY":"0.00024120","INCLINATION":"53.2182","EPHEMERIS_TYPE":"0","PERIOD":"95.436","PERIAPSIS":"538.002","MEAN_MOTION_DDOT":"0.0000000000000","MEAN_MOTION_DOT":"0.00012080","BSTAR":"0.00077523000000","TLE_LINE2":"2 52363  53.2182 241.8634 0002412  35.0829 325.0322 15.08864562 32755","TIME_SYSTEM":"UTC","NORAD_CAT_ID":"52363","MEAN_ELEMENT_THEORY":"SGP4","DECAY_DATE":null,"OBJECT_ID":"2022-045AJ","MEAN_MOTION":"15.08864562","SITE":"AFETR","CLASSIFICATION_TYPE":"U","FILE":"3653238","REF_FRAME":"TEME","COUNTRY_CODE":"US","OBJECT_TYPE":"PAYLOAD","MEAN_ANOMALY":"325.0322","RCS_SIZE":"LARGE","OBJECT_NAME":"STARLINK-3830","EPOCH":"2022-11-13T06:35:42.529920","ARG_OF_PERICENTER":"35.0829","REV_AT_EPOCH":"3275","RA_OF_ASC_NODE":"241.8634","GP_ID":"217626502","TLE_LINE1":"1 52363U 22045AJ  22317.27479780  .00012080  00000-0  77523-3 0  9999","ELEMENT_SET_NO":"999","APOAPSIS":"541.339","CENTER_NAME":"EARTH"}];
